[{"OBJECT_NAME":"IRIDIUM 100","OBJECT_ID":"2017-061B","EPOCH":"2026-03-09T22:53:38.663808","MEAN_MOTION":14.34217595,"ECCENTRICITY":0.00021334,"INCLINATION":86.3915,"RA_OF_ASC_NODE":66.6702,"ARG_OF_PERICENTER":88.8283,"MEAN_ANOMALY":271.3157,"EPHEMERIS_TYPE":0,"CLASSIFICATION_TYPE":"U","NORAD_CAT_ID":42956,"ELEMENT_SET_NO":999,"REV_AT_EPOCH":44055,"BSTAR":3.731497e-6,"MEAN_MOTION_DOT":3.0e-7,"MEAN_MOTION_DDOT":0},{"OBJECT_NAME":"METEOR 2-8 DEB","OBJECT_ID":"1982-025Y","EPOCH":"2026-03-07T23:10:37.040736","MEAN_MOTION":14.30156088,"ECCENTRICITY":0.00195592,"INCLINATION":82.5172,"RA_OF_ASC_NODE":261.0264,"ARG_OF_PERICENTER":351.9115,"MEAN_ANOMALY":8.1752,"EPHEMERIS_TYPE":0,"CLASSIFICATION_TYPE":"U","NORAD_CAT_ID":36338,"ELEMENT_SET_NO":999,"REV_AT_EPOCH":9128,"BSTAR":0.0028287736,"MEAN_MOTION_DOT":7.351e-5,"MEAN_MOTION_DDOT":0}]
